[{"OBJECT_NAME":"OBJECT N","OBJECT_ID":"2024-205N","EPOCH":"2026-03-09T22:36:13.267872","MEAN_MOTION":15.33862123,"ECCENTRICITY":0.00094432,"INCLINATION":97.4211,"RA_OF_ASC_NODE":148.9295,"ARG_OF_PERICENTER":39.7652,"MEAN_ANOMALY":320.4281,"EPHEMERIS_TYPE":0,"CLASSIFICATION_TYPE":"U","NORAD_CAT_ID":61906,"ELEMENT_SET_NO":999,"REV_AT_EPOCH":7364,"BSTAR":0.00078005624,"MEAN_MOTION_DOT":0.00025559,"MEAN_MOTION_DDOT":0},{"OBJECT_NAME":"STARLINK-34297","OBJECT_ID":"2025-120F","EPOCH":"2026-03-09T09:49:50.101824","MEAN_MOTION":15.30205385,"ECCENTRICITY":0.00010533,"INCLINATION":53.1583,"RA_OF_ASC_NODE":117.9679,"ARG_OF_PERICENTER":89.9966,"MEAN_ANOMALY":270.1155,"EPHEMERIS_TYPE":0,"CLASSIFICATION_TYPE":"U","NORAD_CAT_ID":64261,"ELEMENT_SET_NO":999,"REV_AT_EPOCH":4377,"BSTAR":0.00086585803,"MEAN_MOTION_DOT":0.00025377,"MEAN_MOTION_DDOT":0}]
